CCSDS_OMM_VERS = 2.0
CREATION_DATE  = 
ORIGINATOR     = 

OBJECT_NAME    = ERS-1
OBJECT_ID      = 1991-050A
CENTER_NAME    = EARTH
REF_FRAME      = TEME
TIME_SYSTEM    = UTC
MEAN_ELEMENT_THEORY = SGP/SGP4

EPOCH          = 2026-03-14T06:50:28.729536
MEAN_MOTION    = 14.39453314
ECCENTRICITY   = .00318882
INCLINATION    = 98.7878
RA_OF_ASC_NODE = 91.6351
ARG_OF_PERICENTER = 186.7315
MEAN_ANOMALY   = 173.3448

EPHEMERIS_TYPE = 0
CLASSIFICATION_TYPE = U
NORAD_CAT_ID   = 21574
ELEMENT_SET_NO = 999
REV_AT_EPOCH   = 81639
BSTAR          = .13017628E-3
MEAN_MOTION_DOT = .361E-5
MEAN_MOTION_DDOT = 0

CCSDS_OMM_VERS = 2.0
CREATION_DATE  = 
ORIGINATOR     = 

OBJECT_NAME    = ARIANE 40 R/B
OBJECT_ID      = 1991-050F
CENTER_NAME    = EARTH
REF_FRAME      = TEME
TIME_SYSTEM    = UTC
MEAN_ELEMENT_THEORY = SGP/SGP4

EPOCH          = 2026-03-14T02:48:32.044320
MEAN_MOTION    = 14.42897172
ECCENTRICITY   = .00042004
INCLINATION    = 98.2004
RA_OF_ASC_NODE = 125.1872
ARG_OF_PERICENTER = 71.5456
MEAN_ANOMALY   = 288.6191

EPHEMERIS_TYPE = 0
CLASSIFICATION_TYPE = U
NORAD_CAT_ID   = 21610
ELEMENT_SET_NO = 999
REV_AT_EPOCH   = 81963
BSTAR          = .11152861E-3
MEAN_MOTION_DOT = .331E-5
MEAN_MOTION_DDOT = 0

CCSDS_OMM_VERS = 2.0
CREATION_DATE  = 
ORIGINATOR     = 

OBJECT_NAME    = INTERCOSMOS 25
OBJECT_ID      = 1991-086A
CENTER_NAME    = EARTH
REF_FRAME      = TEME
TIME_SYSTEM    = UTC
MEAN_ELEMENT_THEORY = SGP/SGP4

EPOCH          = 2026-03-14T02:46:23.604672
MEAN_MOTION    = 12.12015673
ECCENTRICITY   = .14868831
INCLINATION    = 82.6046
RA_OF_ASC_NODE = 307.3332
ARG_OF_PERICENTER = 107.4000
MEAN_ANOMALY   = 269.4751

EPHEMERIS_TYPE = 0
CLASSIFICATION_TYPE = U
NORAD_CAT_ID   = 21819
ELEMENT_SET_NO = 999
REV_AT_EPOCH   = 49722
BSTAR          = .40989884E-3
MEAN_MOTION_DOT = .2127E-4
MEAN_MOTION_DDOT = 0

CCSDS_OMM_VERS = 2.0
CREATION_DATE  = 
ORIGINATOR     = 

OBJECT_NAME    = SL-8 R/B
OBJECT_ID      = 1992-008B
CENTER_NAME    = EARTH
REF_FRAME      = TEME
TIME_SYSTEM    = UTC
MEAN_ELEMENT_THEORY = SGP/SGP4

EPOCH          = 2026-03-14T07:48:53.147232
MEAN_MOTION    = 13.75969741
ECCENTRICITY   = .00357211
INCLINATION    = 82.9221
RA_OF_ASC_NODE = 264.3286
ARG_OF_PERICENTER = 120.7593
MEAN_ANOMALY   = 52.4281

EPHEMERIS_TYPE = 0
CLASSIFICATION_TYPE = U
NORAD_CAT_ID   = 21876
ELEMENT_SET_NO = 999
REV_AT_EPOCH   = 71005
BSTAR          = -.8286666E-5
MEAN_MOTION_DOT = .8E-7
MEAN_MOTION_DDOT = 0

CCSDS_OMM_VERS = 2.0
CREATION_DATE  = 
ORIGINATOR     = 

OBJECT_NAME    = SL-8 R/B
OBJECT_ID      = 1992-020B
CENTER_NAME    = EARTH
REF_FRAME      = TEME
TIME_SYSTEM    = UTC
MEAN_ELEMENT_THEORY = SGP/SGP4

EPOCH          = 2026-03-14T06:34:59.837088
MEAN_MOTION    = 13.75549931
ECCENTRICITY   = .00275672
INCLINATION    = 82.9329
RA_OF_ASC_NODE = 150.3580
ARG_OF_PERICENTER = 285.4171
MEAN_ANOMALY   = 133.2824

EPHEMERIS_TYPE = 0
CLASSIFICATION_TYPE = U
NORAD_CAT_ID   = 21938
ELEMENT_SET_NO = 999
REV_AT_EPOCH   = 70176
BSTAR          = .37144027E-4
MEAN_MOTION_DOT = .51E-6
MEAN_MOTION_DDOT = 0

CCSDS_OMM_VERS = 2.0
CREATION_DATE  = 
ORIGINATOR     = 

OBJECT_NAME    = USA 81
OBJECT_ID      = 1992-023A
CENTER_NAME    = EARTH
REF_FRAME      = TEME
TIME_SYSTEM    = UTC
MEAN_ELEMENT_THEORY = SGP/SGP4

EPOCH          = 2026-03-14T04:47:21.552000
MEAN_MOTION    = 14.32369509
ECCENTRICITY   = .00023364
INCLINATION    = 85.0076
RA_OF_ASC_NODE = 128.8394
ARG_OF_PERICENTER = 74.1124
MEAN_ANOMALY   = 286.0326

EPHEMERIS_TYPE = 0
CLASSIFICATION_TYPE = U
NORAD_CAT_ID   = 21949
ELEMENT_SET_NO = 999
REV_AT_EPOCH   = 9543
BSTAR          = .58430242E-4
MEAN_MOTION_DOT = .178E-5
MEAN_MOTION_DDOT = 0

CCSDS_OMM_VERS = 2.0
CREATION_DATE  = 
ORIGINATOR     = 

OBJECT_NAME    = COSMOS 2219
OBJECT_ID      = 1992-076A
CENTER_NAME    = EARTH
REF_FRAME      = TEME
TIME_SYSTEM    = UTC
MEAN_ELEMENT_THEORY = SGP/SGP4

EPOCH          = 2026-03-14T06:15:02.583648
MEAN_MOTION    = 14.14093600
ECCENTRICITY   = .00187039
INCLINATION    = 71.0641
RA_OF_ASC_NODE = 8.5136
ARG_OF_PERICENTER = 200.6809
MEAN_ANOMALY   = 159.3558

EPHEMERIS_TYPE = 0
CLASSIFICATION_TYPE = U
NORAD_CAT_ID   = 22219
ELEMENT_SET_NO = 999
REV_AT_EPOCH   = 71902
BSTAR          = .22289361E-4
MEAN_MOTION_DOT = -.5E-7
MEAN_MOTION_DDOT = 0

CCSDS_OMM_VERS = 2.0
CREATION_DATE  = 
ORIGINATOR     = 

OBJECT_NAME    = SL-16 R/B
OBJECT_ID      = 1992-076B
CENTER_NAME    = EARTH
REF_FRAME      = TEME
TIME_SYSTEM    = UTC
MEAN_ELEMENT_THEORY = SGP/SGP4

EPOCH          = 2026-03-14T06:53:07.397952
MEAN_MOTION    = 14.16859163
ECCENTRICITY   = .0010506
INCLINATION    = 71.0006
RA_OF_ASC_NODE = 178.6905
ARG_OF_PERICENTER = 87.9194
MEAN_ANOMALY   = 340.0202

EPHEMERIS_TYPE = 0
CLASSIFICATION_TYPE = U
NORAD_CAT_ID   = 22220
ELEMENT_SET_NO = 999
REV_AT_EPOCH   = 72248
BSTAR          = .2486328E-5
MEAN_MOTION_DOT = -.43E-6
MEAN_MOTION_DDOT = 0

CCSDS_OMM_VERS = 2.0
CREATION_DATE  = 
ORIGINATOR     = 

OBJECT_NAME    = COSMOS 2221
OBJECT_ID      = 1992-080A
CENTER_NAME    = EARTH
REF_FRAME      = TEME
TIME_SYSTEM    = UTC
MEAN_ELEMENT_THEORY = SGP/SGP4

EPOCH          = 2026-03-14T04:26:26.554848
MEAN_MOTION    = 14.96220353
ECCENTRICITY   = .00144277
INCLINATION    = 82.5007
RA_OF_ASC_NODE = 274.7741
ARG_OF_PERICENTER = 171.9782
MEAN_ANOMALY   = 188.1674

EPHEMERIS_TYPE = 0
CLASSIFICATION_TYPE = U
NORAD_CAT_ID   = 22236
ELEMENT_SET_NO = 999
REV_AT_EPOCH   = 78146
BSTAR          = .18220343E-3
MEAN_MOTION_DOT = .2084E-4
MEAN_MOTION_DDOT = 0

CCSDS_OMM_VERS = 2.0
CREATION_DATE  = 
ORIGINATOR     = 

OBJECT_NAME    = SL-16 R/B
OBJECT_ID      = 1992-093B
CENTER_NAME    = EARTH
REF_FRAME      = TEME
TIME_SYSTEM    = UTC
MEAN_ELEMENT_THEORY = SGP/SGP4

EPOCH          = 2026-03-14T04:36:04.761792
MEAN_MOTION    = 14.15446983
ECCENTRICITY   = .00063477
INCLINATION    = 71.0240
RA_OF_ASC_NODE = 354.8157
ARG_OF_PERICENTER = 289.0546
MEAN_ANOMALY   = 70.9889

EPHEMERIS_TYPE = 0
CLASSIFICATION_TYPE = U
NORAD_CAT_ID   = 22285
ELEMENT_SET_NO = 999
REV_AT_EPOCH   = 71379
BSTAR          = -.13758226E-4
MEAN_MOTION_DOT = -.74E-6
MEAN_MOTION_DDOT = 0

CCSDS_OMM_VERS = 2.0
CREATION_DATE  = 
ORIGINATOR     = 

OBJECT_NAME    = COSMOS 2228
OBJECT_ID      = 1992-094A
CENTER_NAME    = EARTH
REF_FRAME      = TEME
TIME_SYSTEM    = UTC
MEAN_ELEMENT_THEORY = SGP/SGP4

EPOCH          = 2026-03-14T06:21:56.370528
MEAN_MOTION    = 14.97216872
ECCENTRICITY   = .00166433
INCLINATION    = 82.5159
RA_OF_ASC_NODE = 232.9287
ARG_OF_PERICENTER = 288.0593
MEAN_ANOMALY   = 71.8816

EPHEMERIS_TYPE = 0
CLASSIFICATION_TYPE = U
NORAD_CAT_ID   = 22286
ELEMENT_SET_NO = 999
REV_AT_EPOCH   = 77674
BSTAR          = .24798235E-3
MEAN_MOTION_DOT = .2901E-4
MEAN_MOTION_DDOT = 0

CCSDS_OMM_VERS = 2.0
CREATION_DATE  = 
ORIGINATOR     = 

OBJECT_NAME    = SL-16 R/B
OBJECT_ID      = 1993-016B
CENTER_NAME    = EARTH
REF_FRAME      = TEME
TIME_SYSTEM    = UTC
MEAN_ELEMENT_THEORY = SGP/SGP4

EPOCH          = 2026-03-14T02:11:21.967872
MEAN_MOTION    = 14.15309360
ECCENTRICITY   = .00121042
INCLINATION    = 71.0081
RA_OF_ASC_NODE = 205.9364
ARG_OF_PERICENTER = 308.3395
MEAN_ANOMALY   = 51.6639

EPHEMERIS_TYPE = 0
CLASSIFICATION_TYPE = U
NORAD_CAT_ID   = 22566
ELEMENT_SET_NO = 999
REV_AT_EPOCH   = 70279
BSTAR          = -.18640061E-4
MEAN_MOTION_DOT = -.84E-6
MEAN_MOTION_DDOT = 0

