ERS-1                   
1 21574U 91050A   26073.28505474  .00000361  00000+0  13018-3 0  9992
2 21574  98.7878  91.6351 0031888 186.7315 173.3448 14.39453314816396
ARIANE 40 R/B           
1 21610U 91050F   26073.11703755  .00000331  00000+0  11153-3 0  9992
2 21610  98.2004 125.1872 0004200  71.5456 288.6191 14.42897172819632
INTERCOSMOS 25          
1 21819U 91086A   26073.11555098  .00002127  00000+0  40990-3 0  9993
2 21819  82.6046 307.3332 1486883 107.4000 269.4751 12.12015673497226
SL-8 R/B                
1 21876U 92008B   26073.32561513  .00000008  00000+0 -82867-5 0  9991
2 21876  82.9221 264.3286 0035721 120.7593  52.4281 13.75969741710053
SL-8 R/B                
1 21938U 92020B   26073.27430367  .00000051  00000+0  37144-4 0  9994
2 21938  82.9329 150.3580 0027567 285.4171 133.2824 13.75549931701766
USA 81                  
1 21949U 92023A   26073.19955500  .00000178  00000+0  58430-4 0  9992
2 21949  85.0076 128.8394 0002336  74.1124 286.0326 14.32369509 95431
COSMOS 2219             
1 22219U 92076A   26073.26044657 -.00000005  00000+0  22289-4 0  9994
2 22219  71.0641   8.5136 0018703 200.6809 159.3558 14.14093600719027
SL-16 R/B               
1 22220U 92076B   26073.28689118 -.00000043  00000+0  24863-5 0  9998
2 22220  71.0006 178.6905 0010506  87.9194 340.0202 14.16859163722488
COSMOS 2221             
1 22236U 92080A   26073.18502957  .00002084  00000+0  18220-3 0  9998
2 22236  82.5007 274.7741 0014427 171.9782 188.1674 14.96220353781460
SL-16 R/B               
1 22285U 92093B   26073.19172178 -.00000074  00000+0 -13758-4 0  9996
2 22285  71.0240 354.8157 0006347 289.0546  70.9889 14.15446983713795
COSMOS 2228             
1 22286U 92094A   26073.26523577  .00002901  00000+0  24798-3 0  9993
2 22286  82.5159 232.9287 0016643 288.0593  71.8816 14.97216872776749
SL-16 R/B               
1 22566U 93016B   26073.09122648 -.00000084  00000+0 -18640-4 0  9996
2 22566  71.0081 205.9364 0012104 308.3395  51.6639 14.15309360702795
